#cP2022  3 22  0  0  0.00000000     576 d+D   IGb14 EXT AIUB
## 2202 172800.00000000   300.00000000 59660 0.0000000000000
+   76   G01G02G03G04G05G06G07G08G09G10G11G12G13G14G15G16G17
+        G18G19G20G21G22G23G24G25G26G27G28G29G30G31G32R01R02
+        R03R04R05R07R08R09R12R13R14R15R17R18R19R20R21R22R24
+        E01E02E03E04E05E07E08E10E11E12E13E14E15E18E19E21E24
+        E25E26E27E30E31E33E34E36  0  0  0  0  0  0  0  0  0
++         5  7  6  8  7  6  7  6  6  5  8  7  7  7  7  7  7
++         8  7  7  7  7  7  6  6  7  6  7  7  6  6  6  8  6
++         7  7  6  7  7  7  7  8  7  7  7  7  9  9  8  8  8
++         6  6  5  7  6  6  6  7  7  6  6  7  7  7  7  5  5
++         6  7  6  6  6  6  7  7  0  0  0  0  0  0  0  0  0
%c M  cc GPS ccc cccc cccc cccc cccc ccccc ccccc ccccc ccccc
%c cc cc ccc ccc cccc cccc cccc cccc ccccc ccccc ccccc ccccc
%f  1.2500000  1.025000000  0.00000000000  0.000000000000000
%f  0.0000000  0.000000000  0.00000000000  0.000000000000000
%i    0    0    0    0      0      0      0      0         0
%i    0    0    0    0      0      0      0      0         0
/* Center for Orbit Determination in Europe (CODE)          
/* Ultra-rapid GRE orbits starting year-day 22081 00 hour   
/* Observed/predicted: 24/24 hours (data used up to 081X)   
/* PCV:IGS14      OL/AL:FES2014b NONE     YN ORB:CoN CLK:BRD
*  2022  3 22 10 25  0.00000000
PG01 -18996.572612  -9233.837278  16034.335049    402.969344
PG02  14552.734985  21915.242074   3694.594402   -652.522022
PG03 -16443.941870   1875.393988  20644.273549   -174.493464
PG04 -26373.227731  -1074.905149   3348.135081   -181.845487
PG05   9399.566560  14398.734701 -20363.859374    -75.563041
PG06   1835.323472  21218.991700  15885.529545    239.841057
PG07 -13401.605547   7371.204138 -21342.363805    317.230756
PG08 -22380.059769  -6740.749173 -12976.529941    -60.825497
PG09 -24378.723774   7694.772007  -7330.583764   -348.377527
PG10  11367.211979 -23823.843092   -261.092120   -354.576260
PG11  12458.604570  23353.182536   2298.786664    -57.893214
PG12  15230.181053   2727.769577  21302.493774   -188.671368
PG13  15152.164723  13001.495470 -17750.139318    281.061748
PG14 -12999.387378  23083.406241  -1199.153930    -96.188557
PG15  23288.822894   4686.948925 -12605.460414    -74.870176
PG16  -4545.230723 -18044.911647 -19038.374143   -483.477744
PG17 -12468.440062  13453.888897  19660.291260    590.488061
PG18  13073.185010  -7390.868053 -21913.146585    214.039086
PG19  -4422.431823  14420.560646  21581.236456    134.297699
PG20   4281.688315  22139.043635 -14223.067174    516.189853
PG21 -20298.711440 -16104.410430   7887.112424    159.674075
PG22    736.658850 -15381.017111  22044.137623    231.367091
PG23  16154.148390 -17904.832295 -11031.606244     -8.886798
PG24  20787.262934  11602.455224  11895.469875    265.612057
PG25  17600.591237 -11537.457867  15746.375984    301.707759
PG26   2726.167180 -24615.797908  -9246.928334    192.761199
PG27 -12298.751357 -12727.445022 -20130.395496    161.936376
PG28  -7985.192436  24319.412390   8033.773303    374.979929
PG29  25569.302473  -4207.661278  -6018.565886   -494.265595
PG30  -7217.655052  15728.092777 -20015.497794   -520.008201
PG31  -3243.492922 -22314.695537  13527.443641   -170.045762
PG32   8311.154583 -15078.644483  20309.932328    -89.706001
PR01  17895.640105 -16052.679013   8555.112928      7.322235
PR02   1248.481871 -12776.782462  22077.343879    513.269195
PR03 -14991.778889  -2441.502574  20557.525104     53.544743
PR04 -22568.567382   9099.834371   7697.597674    133.075175
PR05 -17869.612946  15569.818092  -9444.897916     89.810089
PR07  15454.829827   1948.506691 -20141.076394     32.945818
PR08  22543.219499  -9264.908089  -7421.941582    -64.154205
PR09   3088.299730  24863.112261   4602.501719     45.677951
PR12   5757.469691 -21253.779244  12877.316295     17.537447
PR13  -2391.060830 -25163.257055  -3436.760615    -19.792307
PR14  -9542.904928 -13997.093405 -19069.697249     75.653366
PR15 -10754.355459   4917.373502 -22588.021491     97.380131
PR17 -21700.981748 -13250.989086  -1818.141339    511.539524
PR18 -20647.016571  -4481.303094  14351.864721    111.096648
PR19  -9873.526261   5798.983803  22793.735109   -182.498603
PR20   9521.265849  15249.077141  18080.296418    -67.182825
PR21  22056.681838  12828.241039    342.634879   -287.271503
PR22  20118.890165   3967.755328 -15112.612018   -172.148995
PR24 -10363.202049 -15465.976673 -17418.294992     85.546820
PE01 -15898.718621  21787.937670 -12212.346278   -601.593065
PE02  15828.947556 -21890.114757  12069.080553    287.867886
PE03  22649.108336 -14104.065378  12829.563109   -539.970385
PE04  -3362.075661  17672.831110 -23497.218297   -989.923841
PE05  28985.294201  -2166.673449  -5592.608267   -198.039616
PE07 -18367.308876 -10872.010550  20513.928298   -650.829002
PE08   2911.611175 -17521.948845  23683.716939   -499.343666
PE10  14082.599203  24265.283801   9425.301289   -501.991964
PE11  20303.276303  21509.858059   -756.594080   4165.703593
PE12   5737.677748  23158.092941  17504.050011   4701.139803
PE13 -20057.756723 -21778.451824     73.286442    427.471218
PE14 -20768.140655 -11857.542285 -14863.122638  -1786.984461
PE15  -5732.905113 -23074.471689 -17632.224981    756.298731
PE18  29543.120391    504.488935    804.794405  -1654.863757
PE19 -24359.086255  12876.357150 -10814.643957  -1731.847969
PE21 -17871.337027   3665.759633 -23318.104744   -723.982993
PE24   8904.155310  18832.913703  21022.052899   -519.011235
PE25  17822.064122  -3352.039180  23392.416839   -567.677135
PE26 -22327.582975  -6774.629574  18223.328820   -941.263842
PE27  -9755.597764 -17644.398240 -21669.014611   -258.800978
PE30   4863.768610 -28497.976192  -6319.823722   -368.706791
PE31  -4039.205083  28410.708142   7281.163449   -493.902743
PE33 -11932.103909  10743.509704  24872.819042   -458.335506
PE34  11738.373418 -10957.568238 -24869.694608   -508.064483
PE36  22499.238162   7695.820750 -17613.724781   -348.813782
EOF
